[{"OBJECT_NAME":"STARLINK-2196","OBJECT_ID":"2021-017BD","EPOCH":"2026-03-09T17:13:50.073888","MEAN_MOTION":15.30182626,"ECCENTRICITY":0.00012684,"INCLINATION":53.1609,"RA_OF_ASC_NODE":216.5872,"ARG_OF_PERICENTER":64.4271,"MEAN_ANOMALY":295.686,"EPHEMERIS_TYPE":0,"CLASSIFICATION_TYPE":"U","NORAD_CAT_ID":47773,"ELEMENT_SET_NO":999,"REV_AT_EPOCH":27766,"BSTAR":-0.00014318495,"MEAN_MOTION_DOT":-4.595e-5,"MEAN_MOTION_DDOT":0},{"OBJECT_NAME":"CSSWE","OBJECT_ID":"2012-048D","EPOCH":"2026-03-09T08:13:05.901888","MEAN_MOTION":15.39093253,"ECCENTRICITY":0.00676686,"INCLINATION":64.6623,"RA_OF_ASC_NODE":70.3925,"ARG_OF_PERICENTER":202.9126,"MEAN_ANOMALY":156.8988,"EPHEMERIS_TYPE":0,"CLASSIFICATION_TYPE":"U","NORAD_CAT_ID":38761,"ELEMENT_SET_NO":999,"REV_AT_EPOCH":10100,"BSTAR":0.00070329542,"MEAN_MOTION_DOT":0.0002953,"MEAN_MOTION_DDOT":0}]
